0 SCOUT A-1 R/B
1 06910U 73081B   13281.11461132  .00000105  00000-0  97897-4 0  8819
2 06910 089.8497 333.3634 0162349 117.1667 273.1516 13.68812817992855
0 SCOUT A-1 R/B
1 06910U 73081B   13283.47452016  .00000118  00000-0  11227-3 0  8828
2 06910 089.8495 333.3265 0162363 110.2147 022.0415 13.68813260993174
0 SCOUT A-1 R/B
1 06910U 73081B   13285.74175420  .00000150  00000-0  14645-3 0  8835
2 06910 089.8490 333.2910 0162358 103.5319 034.2673 13.68813741993484
0 SCOUT A-1 R/B
1 06910U 73081B   13288.13000124  .00000229  00000-0  22990-3 0  8849
2 06910 089.8483 333.2535 0162294 096.4901 282.8155 13.68815083993819
0 SCOUT A-1 R/B
1 06910U 73081B   13290.25660644  .00000163  00000-0  16003-3 0  8850
2 06910 089.8478 333.2199 0162229 090.2230 322.0759 13.68815661994106
0 SCOUT A-1 R/B
1 06910U 73081B   13292.37774513  .00000141  00000-0  13687-3 0  8868
2 06910 089.8476 333.1860 0162150 083.9658 334.4111 13.68816229994395
0 SCOUT A-1 R/B
1 06910U 73081B   13294.42600819  .00000110  00000-0  10421-3 0  8873
2 06910 089.8475 333.1532 0162059 077.9289 347.6348 13.68816500994672
